NORAD_CAT_ID,OBJECT_NAME,OBJECT_TYPE,EPOCH,MEAN_MOTION,ECCENTRICITY,INCLINATION,RA_OF_ASC_NODE,ARG_OF_PERICENTER,MEAN_ANOMALY,BSTAR,MEAN_MOTION_DOT,MEAN_MOTION_DDOT,TLE_LINE0,TLE_LINE1,TLE_LINE2,SEMIMAJOR_AXIS,PERIOD,APOGEE,PERIGEE,DECAYED
55423.0,STARLINK-5068,PAYLOAD,2023-05-03 22:00:00,15.48048911,0.0003293,70.0002,191.2025,269.3139,305.9148,-0.018466,-0.00882555,0.0,0 STARLINK-5068,1 55423U 23014AJ  23123.91667824 -.00882555  00000-0 -18466-1 0  9994,2 55423  70.0002 191.2025 0003293 269.3139 305.9148 15.48048911 14668,6800.571,93.02,424.676,420.197,0.0
55423.0,STARLINK-5068,PAYLOAD,2023-05-04 14:00:01,15.46747748,0.0003464,70.0,189.3904,273.7679,54.2006,-0.019097,-0.00873195,0.0,0 STARLINK-5068,1 55423U 23014AJ  23124.58335648 -.00873195  00000-0 -19097-1 0  9995,2 55423  70.0000 189.3904 0003464 273.7679  54.2006 15.46747748  1304,6804.384,93.099,428.607,423.892,0.0
55423.0,STARLINK-5068,PAYLOAD,2023-05-04 22:00:01,15.46082248,0.0003356,69.9999,188.4855,269.9046,113.2406,-0.019354,-0.00865499,0.0,0 STARLINK-5068,1 55423U 23014AJ  23124.91668981 -.00865499  00000-0 -19354-1 0  9995,2 55423  69.9999 188.4855 0003356 269.9046 113.2406 15.46082248  1305,6806.337,93.139,430.486,425.918,0.0
55423.0,STARLINK-5068,PAYLOAD,2023-05-05 06:00:00,15.4549223,0.000338,70.0,187.5817,270.031,167.4138,-0.022072,-0.00971434,0.0,0 STARLINK-5068,1 55423U 23014AJ  23125.25001157 -.00971434  00000-0 -22072-1 0  9997,2 55423  70.0000 187.5817 0003380 270.0310 167.4138 15.45492230 14866,6808.069,93.174,432.235,427.633,0.0
55423.0,STARLINK-5068,PAYLOAD,2023-05-05 22:00:00,15.44122563,0.0003156,69.9995,185.7765,268.8155,275.0725,-0.020495,-0.00868951,0.0,0 STARLINK-5068,1 55423U 23014AJ  23125.91667824 -.00868951  00000-0 -20495-1 0  9995,2 55423  69.9995 185.7765 0003156 268.8155 275.0725 15.44122563 14979,6812.094,93.257,436.109,431.81,0.0
55423.0,STARLINK-5068,PAYLOAD,2023-05-06 16:00:00,15.4270152,0.0003302,69.999,183.75,275.6602,114.1981,-0.023334,-0.00936926,0.0,0 STARLINK-5068,1 55423U 23014AJ  23126.66667824 -.00936926  00000-0 -23334-1 0  9991,2 55423  69.9990 183.7500 0003302 275.6602 114.1981 15.42701520  1309,6816.277,93.343,440.393,435.891,0.0
55423.0,STARLINK-5068,PAYLOAD,2023-05-07 06:00:00,15.41572398,0.0003379,69.9991,182.1774,268.6937,118.6378,-0.025058,-0.00966092,0.0,0 STARLINK-5068,1 55423U 23014AJ  23127.25001157 -.00966092  00000-0 -25058-1 0  9990,2 55423  69.9991 182.1774 0003379 268.6937 118.6378 15.41572398 15170,6819.605,93.411,443.774,439.166,0.0
55423.0,STARLINK-5068,PAYLOAD,2023-05-07 14:00:01,15.40882885,0.0003238,69.999,181.2804,276.1131,160.1325,-0.023587,-0.00894655,0.0,0 STARLINK-5068,1 55423U 23014AJ  23127.58334491 -.00894655  00000-0 -23587-1 0  9996,2 55423  69.9990 181.2804 0003238 276.1131 160.1325 15.40882885  1305,6821.639,93.453,445.713,441.295,0.0
55423.0,STARLINK-5068,PAYLOAD,2023-05-07 22:00:00,15.40202343,0.0003175,69.9986,180.3828,270.0901,214.2932,-0.022902,-0.00852614,0.0,0 STARLINK-5068,1 55423U 23014AJ  23127.91667824 -.00852614  00000-0 -22902-1 0  9991,2 55423  69.9986 180.3828 0003175 270.0901 214.2932 15.40202343 15275,6823.649,93.494,447.68,443.347,0.0
55423.0,STARLINK-5068,PAYLOAD,2023-05-08 14:00:01,15.38925242,0.0003131,69.9986,178.5918,273.634,304.6491,-0.02517,-0.00894831,0.0,0 STARLINK-5068,1 55423U 23014AJ  23128.58334491 -.00894831  00000-0 -25170-1 0  9993,2 55423  69.9986 178.5918 0003131 273.6340 304.6491 15.38925242 15385,6827.423,93.572,451.426,447.151,0.0
55423.0,STARLINK-5068,PAYLOAD,2023-05-08 22:00:00,15.38248862,0.0003239,69.9986,177.6978,267.1191,356.9518,-0.02455,-0.0085676,0.0,0 STARLINK-5068,1 55423U 23014AJ  23128.91667824 -.00856760  00000-0 -24550-1 0  9999,2 55423  69.9986 177.6978 0003239 267.1191 356.9518 15.38248862  1305,6829.424,93.613,453.502,449.077,0.0
55423.0,STARLINK-5068,PAYLOAD,2023-05-09 06:00:00,15.37646653,0.0003333,69.9992,176.8052,266.129,42.9273,-0.027781,-0.00942949,0.0,0 STARLINK-5068,1 55423U 23014AJ  23129.25001157 -.00942949  00000-0 -27781-1 0  9992,2 55423  69.9992 176.8052 0003333 266.1290  42.9273 15.37646653 15483,6831.207,93.65,455.349,450.796,0.0
55423.0,STARLINK-5068,PAYLOAD,2023-05-09 14:00:01,15.36970648,0.0003321,69.9986,175.9119,273.6051,79.6687,-0.026949,-0.00898607,0.0,0 STARLINK-5068,1 55423U 23014AJ  23129.58334491 -.00898607  00000-0 -26949-1 0  9994,2 55423  69.9986 175.9119 0003321 273.6051  79.6687 15.36970648  1300,6833.21,93.691,457.345,452.806,0.0
55423.0,STARLINK-5068,PAYLOAD,2023-05-10 14:00:01,15.35014616,0.0003157,69.9986,173.2399,275.2176,206.0087,-0.028701,-0.00898545,0.0,0 STARLINK-5068,1 55423U 23014AJ  23130.58334491 -.00898545  00000-0 -28701-1 0  9995,2 55423  69.9986 173.2399 0003157 275.2176 206.0087 15.35014616  1307,6839.014,93.81,463.038,458.72,0.0
55423.0,STARLINK-5068,PAYLOAD,2023-05-10 22:00:00,15.34330858,0.0003163,69.9987,172.3512,268.464,253.8578,-0.027584,-0.0084893,0.0,0 STARLINK-5068,1 55423U 23014AJ  23130.91667824 -.00848930  00000-0 -27584-1 0  9992,2 55423  69.9987 172.3512 0003163 268.4640 253.8578 15.34330858 15748,6841.046,93.852,465.075,460.747,0.0
55423.0,STARLINK-5068,PAYLOAD,2023-05-11 14:00:01,15.33063715,0.0003184,69.9986,170.5763,272.3082,329.8273,-0.030888,-0.00908002,0.0,0 STARLINK-5068,1 55423U 23014AJ  23131.58334491 -.00908002  00000-0 -30888-1 0  9995,2 55423  69.9986 170.5763 0003184 272.3082 329.8273 15.33063715  1309,6844.815,93.93,468.859,464.5,0.0
55423.0,STARLINK-5068,PAYLOAD,2023-05-11 16:00:00,15.32930181,0.0003351,69.9986,170.3547,272.9626,68.9244,-0.03314,-0.0096485,0.0,0 STARLINK-5068,1 55423U 23014AJ  23131.66667824 -.00964850  00000-0 -33140-1 0  9990,2 55423  69.9986 170.3547 0003351 272.9626  68.9244 15.32930181 15856,6845.212,93.938,469.371,464.784,0.0
55423.0,STARLINK-5068,PAYLOAD,2023-05-11 22:00:00,15.32373627,0.0003309,69.999,169.6903,266.9189,13.9699,-0.029295,-0.00847555,0.0,0 STARLINK-5068,1 55423U 23014AJ  23131.91667824 -.00847555  00000-0 -29295-1 0  9996,2 55423  69.9990 169.6903 0003309 266.9189  13.9699 15.32373627  1303,6846.87,93.972,471.0,466.469,0.0
55423.0,STARLINK-5068,PAYLOAD,2023-05-12 06:00:00,15.31771602,0.0003441,69.9991,168.8051,268.4941,50.341,-0.033451,-0.00941186,0.0,0 STARLINK-5068,1 55423U 23014AJ  23132.25001157 -.00941186  00000-0 -33451-1 0  9999,2 55423  69.9991 168.8051 0003441 268.4941  50.3410 15.31771602 15944,6848.664,94.009,472.885,468.172,0.0
55423.0,STARLINK-5068,PAYLOAD,2023-05-12 12:00:00,15.31250086,0.0003295,69.9991,168.1416,272.8608,343.9342,-0.031411,-0.00875002,0.0,0 STARLINK-5068,1 55423U 23014AJ  23132.50001157 -.00875002  00000-0 -31411-1 0  9994,2 55423  69.9991 168.1416 0003295 272.8608 343.9342 15.31250086  1306,6850.218,94.041,474.341,469.826,0.0
55423.0,STARLINK-5068,PAYLOAD,2023-05-12 22:00:00,15.30414276,0.0003465,69.9991,167.0371,269.1716,123.2421,-0.030953,-0.00842721,0.0,0 STARLINK-5068,1 55423U 23014AJ  23132.91667824 -.00842721  00000-0 -30953-1 0  9990,2 55423  69.9991 167.0371 0003465 269.1716 123.2421 15.30414276 16048,6852.712,94.092,476.952,472.203,0.0
55423.0,STARLINK-5068,PAYLOAD,2023-05-13 06:00:00,15.29815055,0.000349,69.9994,166.1546,270.9521,157.0609,-0.035658,-0.00955728,0.0,0 STARLINK-5068,1 55423U 23014AJ  23133.25001157 -.00955728  00000-0 -35658-1 0  9998,2 55423  69.9994 166.1546 0003490 270.9521 157.0609 15.29815055 16093,6854.502,94.129,478.759,473.974,0.0
55423.0,STARLINK-5068,PAYLOAD,2023-05-13 14:00:01,15.29151874,0.0003429,69.999,165.2725,275.8175,187.0202,-0.035165,-0.00914334,0.0,0 STARLINK-5068,1 55423U 23014AJ  23133.58334491 -.00914334  00000-0 -35165-1 0  9995,2 55423  69.9990 165.2725 0003429 275.8175 187.0202 15.29151874  1301,6856.483,94.17,480.699,475.997,0.0
55423.0,STARLINK-5068,PAYLOAD,2023-05-13 22:00:00,15.28462101,0.000336,69.9992,164.3917,269.2269,227.6679,-0.033088,-0.00847689,0.0,0 STARLINK-5068,1 55423U 23014AJ  23133.91667824 -.00847689  00000-0 -33088-1 0  9991,2 55423  69.9992 164.3917 0003360 269.2269 227.6679 15.28462101 16190,6858.546,94.212,482.716,478.107,0.0
55423.0,STARLINK-5068,PAYLOAD,2023-05-14 06:00:00,15.27853974,0.00034,69.9994,163.5116,270.0685,260.0834,-0.037624,-0.00949802,0.0,0 STARLINK-5068,1 55423U 23014AJ  23134.25001157 -.00949802  00000-0 -37624-1 0  9990,2 55423  69.9994 163.5116 0003400 270.0685 260.0834 15.27853974 16253,6860.366,94.25,484.563,479.898,0.0
55423.0,STARLINK-5068,PAYLOAD,2023-05-14 14:00:01,15.27195192,0.0003387,69.999,162.6323,273.0054,289.6232,-0.037389,-0.00926821,0.0,0 STARLINK-5068,1 55423U 23014AJ  23134.58334491 -.00926821  00000-0 -37389-1 0  9990,2 55423  69.9990 162.6323 0003387 273.0054 289.6232 15.27195192  1306,6862.339,94.291,486.528,481.879,0.0
55423.0,STARLINK-5068,PAYLOAD,2023-05-14 22:00:00,15.26510707,0.0003392,69.999,161.7539,265.9646,328.3713,-0.035464,-0.00855378,0.0,0 STARLINK-5068,1 55423U 23014AJ  23134.91667824 -.00855378  00000-0 -35464-1 0  9996,2 55423  69.9990 161.7539 0003392 265.9646 328.3713 15.26510707  1305,6864.39,94.333,488.583,483.926,0.0
55423.0,STARLINK-5068,PAYLOAD,2023-05-15 06:00:00,15.25893313,0.0003475,69.9992,160.8765,267.8251,357.424,-0.039636,-0.0094321,0.0,0 STARLINK-5068,1 55423U 23014AJ  23135.25001157 -.00943210  00000-0 -39636-1 0  9993,2 55423  69.9992 160.8765 0003475 267.8251 357.4240 15.25893313 16404,6866.241,94.371,490.492,485.72,0.0
55423.0,STARLINK-5068,PAYLOAD,2023-05-15 14:00:01,15.25246357,0.0003502,69.9987,159.9998,271.4204,23.9547,-0.040234,-0.00939246,0.0,0 STARLINK-5068,1 55423U 23014AJ  23135.58334491 -.00939246  00000-0 -40234-1 0  9999,2 55423  69.9987 159.9998 0003502 271.4204  23.9547 15.25246357  1303,6868.183,94.411,492.453,487.643,0.0
55423.0,STARLINK-5068,PAYLOAD,2023-05-15 22:00:00,15.24553833,0.0003496,69.9987,159.1241,266.0323,58.7069,-0.037645,-0.00855896,0.0,0 STARLINK-5068,1 55423U 23014AJ  23135.91667824 -.00855896  00000-0 -37645-1 0  9995,2 55423  69.9987 159.1241 0003496 266.0323  58.7069 15.24553833  1304,6870.263,94.454,494.529,489.726,0.0
